[{"OBJECT_NAME":"STARLINK-5418","OBJECT_ID":"2022-177AJ","EPOCH":"2026-03-09T22:00:01.999584","MEAN_MOTION":15.12454162,"ECCENTRICITY":0.00010527,"INCLINATION":43.0003,"RA_OF_ASC_NODE":119.0381,"ARG_OF_PERICENTER":226.9765,"MEAN_ANOMALY":357.8621,"EPHEMERIS_TYPE":0,"CLASSIFICATION_TYPE":"U","NORAD_CAT_ID":54852,"ELEMENT_SET_NO":999,"REV_AT_EPOCH":573,"BSTAR":0.0027707485,"MEAN_MOTION_DOT":0.00049145,"MEAN_MOTION_DDOT":0},{"OBJECT_NAME":"PIESAT B","OBJECT_ID":"2023-047B","EPOCH":"2026-03-09T13:45:37.197216","MEAN_MOTION":15.14300167,"ECCENTRICITY":0.0001556,"INCLINATION":97.5017,"RA_OF_ASC_NODE":257.1462,"ARG_OF_PERICENTER":107.7309,"MEAN_ANOMALY":252.4093,"EPHEMERIS_TYPE":0,"CLASSIFICATION_TYPE":"U","NORAD_CAT_ID":56154,"ELEMENT_SET_NO":999,"REV_AT_EPOCH":16272,"BSTAR":0.00018082,"MEAN_MOTION_DOT":3.244e-5,"MEAN_MOTION_DDOT":0}]
